{
 "type": "FeatureCollection",
 "_note": "tools/build_claims.py が作る。国土数値情報 鉱区（C22、昭和59年版、調査時点 1991年3月）。今の鉱区ではない。",
 "features": [
  {
   "type": "Feature",
   "geometry": {
    "type": "Polygon",
    "coordinates": [
     [
      [
       142.942194,
       42.479389
      ],
      [
       142.939694,
       42.477722
      ],
      [
       142.937944,
       42.475389
      ],
      [
       142.935833,
       42.475389
      ],
      [
       142.935833,
       42.476306
      ],
      [
       142.937194,
       42.476306
      ],
      [
       142.938694,
       42.478222
      ],
      [
       142.941333,
       42.480056
      ],
      [
       142.942194,
       42.479389
      ]
     ]
    ]
   },
   "properties": {
    "id": "KC-3581",
    "name": "試掘権（砂鉱）北海道 登録第3581号",
    "kind": "試掘権",
    "mineral": "砂鉱",
    "reg_no": "3581",
    "set_year": "1987",
    "area_ha": "7",
    "surveyed": "1991-03",
    "area_code": "010037",
    "sources": [
     "SRC-054"
    ]
   }
  },
  {
   "type": "Feature",
   "geometry": {
    "type": "Polygon",
    "coordinates": [
     [
      [
       142.972194,
       42.478472
      ],
      [
       142.974194,
       42.476556
      ],
      [
       142.953944,
       42.465056
      ],
      [
       142.951833,
       42.467056
      ],
      [
       142.972194,
       42.478472
      ]
     ]
    ]
   },
   "properties": {
    "id": "KC-3588",
    "name": "試掘権（砂鉱）北海道 登録第3588号",
    "kind": "試掘権",
    "mineral": "砂鉱",
    "reg_no": "3588",
    "set_year": "1988",
    "area_ha": "57",
    "surveyed": "1991-03",
    "area_code": "010041",
    "sources": [
     "SRC-054"
    ]
   }
  }
 ]
}