{"type": "FeatureCollection", "_note": "tools/cross_strike.py が作る。川が地層の走向と 60 度以上で交わる所が 1 km 以上続く区間（伊木 1913 の条件3「横谷」）。", "features": [{"type": "Feature", "geometry": {"type": "LineString", "coordinates": [[143.071267, 42.547839], [143.070062, 42.547777], [143.068879, 42.547989], [143.067792, 42.54837], [143.06666, 42.548685], [143.06603, 42.549427], [143.065181, 42.550027], [143.064074, 42.550161], [143.0633, 42.549465], [143.062212, 42.549632], [143.061135, 42.550046], [143.059973, 42.550312], [143.05889, 42.550398], [143.058262, 42.551164], [143.05708, 42.551201], [143.055953, 42.551464], [143.055196, 42.552109], [143.054205, 42.552554], [143.053549, 42.553284], [143.052361, 42.553344], [143.051222, 42.553662], [143.050162, 42.554087], [143.049043, 42.554372], [143.047862, 42.554243], [143.046917, 42.55446], [143.046169, 42.555167], [143.045211, 42.555726], [143.04464, 42.556513], [143.043663, 42.557051], [143.042647, 42.55755], [143.041836, 42.558116], [143.040635, 42.558237], [143.039442, 42.558395], [143.038241, 42.558468], [143.037138, 42.558321], [143.03633, 42.558986], [143.035237, 42.559387], [143.034061, 42.559225], [143.033058, 42.55885]]}, "properties": {"id": "XS-001", "name": "歴舟川 河口から 37.0〜40.8 km：地層を横切る区間", "river": "歴舟川", "from_km": 37.0, "to_km": 40.8, "cross_median": 84, "domains": "SD-3、SD-5", "confidence": "中"}}, {"type": "Feature", "geometry": {"type": "LineString", "coordinates": [[143.019282, 42.555211], [143.018965, 42.555918], [143.01779, 42.556152], [143.016648, 42.555895], [143.015572, 42.555487], [143.014409, 42.555707], [143.013317, 42.5561], [143.012131, 42.556306], [143.011351, 42.556895], [143.010331, 42.557389], [143.009829, 42.558175], [143.008844, 42.558657], [143.007681, 42.558485], [143.006573, 42.558823], [143.005524, 42.559284], [143.004403, 42.559628], [143.003513, 42.560215], [143.002655, 42.560831], [143.001754, 42.561217], [143.000649, 42.560889]]}, "properties": {"id": "XS-002", "name": "歴舟川 河口から 42.4〜44.3 km：地層を横切る区間", "river": "歴舟川", "from_km": 42.4, "to_km": 44.3, "cross_median": 86, "domains": "SD-3", "confidence": "高"}}, {"type": "Feature", "geometry": {"type": "LineString", "coordinates": [[142.977588, 42.566373], [142.976386, 42.566259], [142.975234, 42.565975], [142.974283, 42.566448], [142.973267, 42.566532], [142.972157, 42.56616], [142.97135, 42.565496], [142.970468, 42.564983], [142.969437, 42.564589], [142.968246, 42.564768], [142.967035, 42.564867], [142.96602, 42.565334], [142.964879, 42.565634], [142.963815, 42.565225], [142.963178, 42.564587], [142.963122, 42.563729], [142.96191, 42.563758], [142.960828, 42.563353], [142.959679, 42.563053], [142.958466, 42.563041], [142.957283, 42.563202], [142.956115, 42.563031], [142.955161, 42.563263], [142.954542, 42.56404], [142.953625, 42.564636], [142.952641, 42.565152], [142.951615, 42.564719], [142.950585, 42.564236], [142.949568, 42.563742], [142.948493, 42.563333], [142.947282, 42.563415]]}, "properties": {"id": "XS-003", "name": "歴舟川 河口から 46.6〜49.6 km：地層を横切る区間", "river": "歴舟川", "from_km": 46.6, "to_km": 49.6, "cross_median": 79, "domains": "SD-1", "confidence": "中"}}, {"type": "Feature", "geometry": {"type": "LineString", "coordinates": [[142.939953, 42.548418], [142.939364, 42.547672], [142.939202, 42.546777], [142.938618, 42.546006], [142.937449, 42.545763], [142.936668, 42.545175], [142.936661, 42.544275], [142.935901, 42.543681], [142.934884, 42.543252], [142.933694, 42.543183], [142.932538, 42.543111], [142.931535, 42.543621], [142.930345, 42.543756], [142.929179, 42.543571], [142.928047, 42.543303], [142.927088, 42.542861], [142.926048, 42.54282]]}, "properties": {"id": "XS-004", "name": "歴舟川 河口から 51.7〜53.3 km：地層を横切る区間", "river": "歴舟川", "from_km": 51.7, "to_km": 53.3, "cross_median": 68, "domains": "SD-1", "confidence": "中"}}, {"type": "Feature", "geometry": {"type": "LineString", "coordinates": [[142.902277, 42.555887], [142.90164, 42.555137], [142.901132, 42.554318], [142.900462, 42.553565], [142.899928, 42.552769], [142.899035, 42.552157], [142.89813, 42.551551], [142.897224, 42.550946], [142.896148, 42.550585], [142.895082, 42.550293], [142.894443, 42.549524], [142.893689, 42.548863]]}, "properties": {"id": "XS-005", "name": "歴舟川 河口から 56.9〜58.0 km：地層を横切る区間", "river": "歴舟川", "from_km": 56.9, "to_km": 58.0, "cross_median": 75, "domains": "SD-1", "confidence": "中"}}, {"type": "Feature", "geometry": {"type": "LineString", "coordinates": [[142.980482, 42.477667], [142.979708, 42.477031], [142.979172, 42.476235], [142.97903, 42.475339], [142.978733, 42.47447], [142.977945, 42.473907], [142.976754, 42.474049], [142.975547, 42.474034], [142.97456, 42.473613], [142.973746, 42.472974], [142.972848, 42.47237], [142.971967, 42.471746], [142.971053, 42.471151], [142.970859, 42.470287], [142.970364, 42.469507]]}, "properties": {"id": "XS-006", "name": "歴舟中の川 河口から 25.2〜26.6 km：地層を横切る区間", "river": "歴舟中の川", "from_km": 25.2, "to_km": 26.6, "cross_median": 82, "domains": "SD-2", "confidence": "中"}}, {"type": "Feature", "geometry": {"type": "LineString", "coordinates": [[142.943533, 42.46868], [142.943019, 42.46788], [142.942058, 42.46736], [142.940926, 42.467028], [142.940015, 42.466464], [142.93919, 42.46582], [142.938128, 42.465382], [142.93697, 42.465426], [142.935833, 42.4652], [142.934697, 42.464898], [142.933529, 42.464665], [142.932452, 42.464313], [142.932112, 42.463451], [142.931473, 42.462706], [142.930938, 42.461897], [142.930207, 42.46119]]}, "properties": {"id": "XS-007", "name": "歴舟中の川 河口から 29.9〜31.4 km：地層を横切る区間", "river": "歴舟中の川", "from_km": 29.9, "to_km": 31.4, "cross_median": 81, "domains": "SD-2", "confidence": "中"}}, {"type": "Feature", "geometry": {"type": "LineString", "coordinates": [[143.111018, 42.461607], [143.10983, 42.461668], [143.109592, 42.460804], [143.108856, 42.460087], [143.108259, 42.459319], [143.107225, 42.458863], [143.106022, 42.458742], [143.104816, 42.458619], [143.103608, 42.458519], [143.102442, 42.458534], [143.101761, 42.457784], [143.101834, 42.456916], [143.102206, 42.456059], [143.10217, 42.455175], [143.101179, 42.454706], [143.099977, 42.454801], [143.098846, 42.455135], [143.097719, 42.455476], [143.096598, 42.455826], [143.09542, 42.455934], [143.094672, 42.45531], [143.09451, 42.454465], [143.093508, 42.453965], [143.092464, 42.453514], [143.091939, 42.452719], [143.090766, 42.452493], [143.089562, 42.45254], [143.088394, 42.452405], [143.087534, 42.45178], [143.086472, 42.451379], [143.085257, 42.451406], [143.08405, 42.451523], [143.082869, 42.451701], [143.081709, 42.451865], [143.080563, 42.451572], [143.079388, 42.451366], [143.078189, 42.451227], [143.076983, 42.451272], [143.075923, 42.450831], [143.07535, 42.450044], [143.074547, 42.449369], [143.073457, 42.449006], [143.072348, 42.448655], [143.071378, 42.448358], [143.070281, 42.448739], [143.069175, 42.448438], [143.068199, 42.4479], [143.067, 42.447888], [143.065823, 42.448113], [143.064613, 42.448078], [143.063593, 42.447699], [143.062793, 42.447091], [143.06158, 42.447106]]}, "properties": {"id": "XS-008", "name": "ヌビナイ川 河口から 12.4〜17.6 km：地層を横切る区間", "river": "ヌビナイ川", "from_km": 12.4, "to_km": 17.6, "cross_median": 82, "domains": "SD-6", "confidence": "高"}}, {"type": "Feature", "geometry": {"type": "LineString", "coordinates": [[143.057655, 42.442042], [143.056679, 42.441509], [143.055553, 42.44122], [143.054812, 42.440522], [143.053966, 42.439925], [143.052779, 42.439726], [143.051765, 42.439246], [143.050754, 42.438768], [143.049646, 42.438397], [143.04883, 42.437765], [143.048477, 42.436899], [143.047721, 42.436209], [143.046839, 42.435587], [143.045884, 42.435031], [143.044732, 42.434759], [143.043545, 42.434561], [143.042336, 42.434499], [143.04112, 42.434512], [143.040121, 42.434021], [143.038951, 42.433781], [143.038021, 42.433234], [143.037254, 42.432543], [143.036622, 42.431774], [143.035438, 42.431663], [143.034251, 42.43182], [143.033103, 42.432105], [143.032099, 42.432574], [143.031145, 42.43312], [143.029966, 42.433341], [143.028795, 42.433169], [143.02759, 42.433075], [143.026385, 42.432974], [143.025205, 42.433166], [143.023989, 42.43316], [143.022799, 42.433346], [143.021683, 42.433703], [143.020531, 42.433823], [143.019319, 42.433783], [143.018161, 42.433543], [143.017186, 42.433039], [143.015986, 42.43315], [143.015183, 42.432507], [143.014103, 42.43258], [143.012958, 42.432621], [143.011805, 42.43244], [143.010891, 42.433012], [143.009982, 42.433525], [143.008801, 42.433744], [143.007601, 42.433887], [143.00645, 42.433632], [143.005406, 42.433173], [143.004608, 42.432495], [143.003993, 42.431714], [143.003188, 42.431045]]}, "properties": {"id": "XS-009", "name": "ヌビナイ川 河口から 18.4〜23.7 km：地層を横切る区間", "river": "ヌビナイ川", "from_km": 18.4, "to_km": 23.7, "cross_median": 74, "domains": "SD-6", "confidence": "高"}}, {"type": "Feature", "geometry": {"type": "LineString", "coordinates": [[142.97613, 42.428274], [142.974996, 42.428012], [142.973886, 42.427667], [142.972806, 42.427285], [142.971722, 42.42688], [142.970792, 42.42632], [142.970045, 42.425616], [142.969076, 42.425136], [142.96811, 42.424639], [142.967077, 42.424265], [142.966111, 42.423772], [142.965687, 42.422964], [142.965271, 42.422124]]}, "properties": {"id": "XS-010", "name": "ヌビナイ川 河口から 26.9〜28.1 km：地層を横切る区間", "river": "ヌビナイ川", "from_km": 26.9, "to_km": 28.1, "cross_median": 75, "domains": "SD-2", "confidence": "中"}}, {"type": "Feature", "geometry": {"type": "LineString", "coordinates": [[143.050806, 42.540811], [143.049625, 42.540642], [143.048789, 42.540016], [143.047617, 42.540136], [143.046519, 42.540493], [143.045642, 42.541114], [143.044736, 42.541452], [143.043553, 42.541368], [143.042354, 42.541517], [143.041393, 42.542002], [143.041242, 42.542881], [143.04026, 42.542813], [143.03915, 42.542764], [143.038178, 42.543242], [143.037152, 42.543705], [143.035942, 42.543794], [143.034846, 42.544048], [143.033862, 42.543881], [143.032681, 42.544059], [143.031636, 42.544506], [143.031328, 42.545299], [143.03042, 42.545888], [143.029296, 42.546237], [143.028168, 42.546571], [143.027215, 42.546977], [143.026096, 42.547134], [143.025391, 42.547714], [143.024384, 42.548128], [143.02352, 42.547553], [143.022689, 42.546908], [143.021507, 42.546866]]}, "properties": {"id": "XS-011", "name": "ポンヤオロヌップ川 河口から 2.6〜5.6 km：地層を横切る区間", "river": "ポンヤオロヌップ川", "from_km": 2.6, "to_km": 5.6, "cross_median": 84, "domains": "SD-3", "confidence": "高"}}]}