{
  "type": "FeatureCollection",
  "_note": "昔の砂金採取の記録を地図に置いたもの。position は座標の決め方、position_confidence は座標の確かさ、record_confidence は記録そのものの確かさ（一次資料か、町の資料か、二次資料か）。result は試掘や洗鉱の結果が記録にある場合。",
  "features": [
    {
      "type": "Feature",
      "geometry": { "type": "Point", "coordinates": [143.4337, 42.4768] },
      "properties": {
        "id": "GS-001",
        "name": "アイボシマ川の河口（段丘崖の裾の礫）",
        "kind": "採取地",
        "period": "寛永12年（1635年）から約50年。明治元〜4年頃に函館商人、明治6年（1873年）に榎本武揚の一行、明治7年（1874年）にマンローが試掘。明治9年（1876年）9月に再開",
        "summary": "大樹町で最初の砂金採取地。1874年当時「一帯で最も金に富む」との評判だった。礫は小川と浜に接した崖の裾にあり、拳大の変成岩礫（青い粘板岩質の珪岩）が主で、花崗岩質の礫と少しの石英を含む（ライマン）。礫層は海抜 25〜30 フィート（約 8〜9 m）で、上に数フィートの黄色い砂がのる。岩盤は見えなかった（マンロー）。",
        "result": "マンローが 1874年に、榎本の採取地点のすぐ近くで地表の上 18 フィートから下 4 フィートまでの礫 3 m³ を洗い、約20粒、0.6 mg（0.2 mg/m³）。マンローは、前年に洗った者たちが金を混ぜて欺いたと確信した。",
        "position": "アイホシマ川（国土数値情報の表記）の河口に置いた。ライマンとマンローはどちらも「Ayoshuma / Ayoboshuma の小川の河口」と書き、当縁と歴舟のほぼ中間（それぞれから約1里）という距離も合う。榎本の地点は1874年にはすでに風と潮で消えていた。",
        "position_confidence": "中（河口であることは確か。数百 m の幅がある）",
        "record_confidence": "高（1874年の現地調査の報告）",
        "sources": ["SRC-015", "SRC-016", "SRC-001", "SRC-003", "SRC-004", "SRC-005", "SRC-011"]
      }
    },
    {
      "type": "Feature",
      "geometry": { "type": "Point", "coordinates": [143.46659, 42.51281] },
      "properties": {
        "id": "GS-003",
        "name": "当縁川の河口（河岸の岩盤露頭）",
        "kind": "試掘地",
        "period": "明治7年（1874年）",
        "summary": "アイボシマから1里先、広尾の北約7里。粘土岩の岩盤が河岸をなして露出している（マンロー）。",
        "result": "岩盤の表面の礫 約 1/4 m³ を洗い、秤れないほど小さな金の粒が2個（0.0001 g/m³ 程度）。",
        "position": "当縁川（国土数値情報）の河口に置いた。河口の位置は明治以降に変わっている可能性がある。",
        "position_confidence": "中",
        "record_confidence": "高（1874年の現地調査の報告）",
        "sources": ["SRC-015", "SRC-011"]
      }
    },
    {
      "type": "Feature",
      "geometry": { "type": "Point", "coordinates": [143.40345, 42.44729] },
      "properties": {
        "id": "GS-004",
        "name": "歴舟川の河口から約0.8 km 上流（平野と石川の試掘）",
        "kind": "試掘地",
        "period": "明治6年（1873年）。明治7年（1874年）にマンローが再び試す",
        "summary": "平野氏と石川氏が前年、歴舟川を海から半マイルほど上った数か所で試掘し、少し金を得たと聞いた（ライマン）。当時の歴舟川は3〜4本に分かれて流れていた。榎本も前年に歴舟の近くで洗っている。段丘はここで低く、岩盤は海面より下とみられる（マンロー）。",
        "result": "マンローの洗鉱も、アイボシマと同じく不振だった。",
        "position": "今の歴舟川の河口（国土数値情報）から川に沿って 0.8 km 上った点に置いた。1874年の河口の位置や流路は今と違う可能性が高い。",
        "position_confidence": "低",
        "record_confidence": "中（1874年の報告の中の伝聞）",
        "sources": ["SRC-015", "SRC-011"]
      }
    },
    {
      "type": "Feature",
      "geometry": { "type": "Point", "coordinates": [143.423, 42.4625] },
      "properties": {
        "id": "GS-005",
        "name": "歴舟とアイボシマの間の段丘（函館商人の採掘と導水溝）",
        "kind": "採取地",
        "period": "明治元〜4年頃（1874年の報告で、マンローは「5、6年前」、ライマンは「3、4年前」）",
        "summary": "函館の商人が砂金の噂を聞いて、歴舟とアイボシマの間の礫を掘り始めたが、引き合わずにすぐやめた。段丘を横切る溝は、彼らがアイボシマの谷の上手から水を引くために掘ったものと推定されている（マンロー）。",
        "result": "記録なし（引き合わずに中止）。",
        "position": "歴舟川の河口とアイホシマ川の河口の中間に仮に置いた。実際は二つの河口の間の海岸段丘のどこか。導水溝は、旧版地形図、1940年代の米軍の空中写真、航空レーザーの陰影図で遺構として探せるかもしれない。",
        "position_confidence": "低（約 3.5 km の区間のどこか）",
        "record_confidence": "高（1874年の現地調査の報告。溝の用途はマンローの推定）",
        "sources": ["SRC-015"]
      }
    },
    {
      "type": "Feature",
      "geometry": { "type": "Point", "coordinates": [143.18608, 42.54031] },
      "properties": {
        "id": "GS-002",
        "name": "尾田（明治のゴールドラッシュの集落）",
        "kind": "集落",
        "period": "明治27年頃から大正。明治32〜33年頃が最盛期",
        "summary": "砂金掘師が200人集まり、ピーク時は1000人を超えたとも言われる。1つの塊が15〜20匁のものも採れた。カナテコと揺り板による流し掘り。",
        "position": "集落の代表点として尾田地域コミュニティセンターの位置に置いた。掘った川の区間は資料に書かれていない。",
        "position_confidence": "中（集落の位置）。採取区間は不明",
        "record_confidence": "中（町の資料。人数は資料により200人と1000人超で食い違う）",
        "sources": ["SRC-002", "SRC-004", "SRC-008", "SRC-012"]
      }
    }
  ]
}
